HULIANWANG DIGUI-140    
1 67438U 26007D   26195.77179888 -.00000114  00000+0  21706-4 0  9997
2 67438  50.0070 347.1067 0000879 117.1949 242.9013 13.29326020 24450
HULIANWANG DIGUI-141    
1 67439U 26007E   26195.66317374 -.00000117  00000+0  15417-4 0  9995
2 67439  50.0066 347.1924 0000874 114.9557 245.1407 13.29326789 24446
HULIANWANG DIGUI-142    
1 67440U 26007F   26195.88038893 -.00000109  00000+0  32797-4 0  9998
2 67440  50.0138 346.4551 0000888 113.8211 246.2755 13.29326609 24478
HULIANWANG DIGUI-143    
1 67441U 26007G   26195.79689956 -.00000108  00000+0  34316-4 0  9999
2 67441  50.0122 346.6531 0000737 115.6363 244.4586 13.29324980 24464
HULIANWANG DIGUI-144    
1 67442U 26007H   26195.78835966 -.00000115  00000+0  19103-4 0  9998
2 67442  50.0107 346.5933 0000890 122.0674 238.0285 13.29329183 24465
HULIANWANG DIGUI-145    
1 67443U 26007J   26195.78019372 -.00000103  00000+0  45983-4 0  9996
2 67443  50.0112 346.5564 0000842 114.5857 245.5104 13.29325812 24466
HULIANWANG DIGUI-146    
1 67522U 26013A   26195.52427558 -.00000071  00000+0  11385-3 0  9994
2 67522  50.0070 257.8620 0001338 215.6472 144.4311 13.29325132 23686
HULIANWANG DIGUI-147    
1 67523U 26013B   26195.51578156 -.00000085  00000+0  83688-4 0  9996
2 67523  50.0043 257.7706 0001246 215.7587 144.3202 13.29328680 23686
HULIANWANG DIGUI-148    
1 67524U 26013C   26195.43221665 -.00000086  00000+0  82854-4 0  9993
2 67524  50.0083 258.0590 0001297 214.9596 145.1191 13.29326627 23677
HULIANWANG DIGUI-149    
1 67525U 26013D   26195.42400727 -.00000083  00000+0  87859-4 0  9998
2 67525  50.0076 258.0078 0001495 217.0803 142.9966 13.29331483 23677
HULIANWANG DIGUI-150    
1 67526U 26013E   26195.55767530 -.00000054  00000+0  15126-3 0  9996
2 67526  50.0039 257.3236 0001298 216.6820 143.3963 13.29325771 23710
HULIANWANG DIGUI-151    
1 67527U 26013F   26195.56599758 -.00000042  00000+0  17709-3 0  9999
2 67527  50.0087 257.4328 0001287 215.1066 144.9722 13.29327953 23692
HULIANWANG DIGUI-152    
1 67528U 26013G   26195.54924126 -.00000076  00000+0  10452-3 0  9994
2 67528  50.0030 257.2698 0001275 218.3991 141.6790 13.29332419 23690
HULIANWANG DIGUI-153    
1 67529U 26013H   26195.54097373 -.00000083  00000+0  88889-4 0  9998
2 67529  50.0030 257.2295 0001249 219.1895 140.8886 13.29323702 23688
HULIANWANG DIGUI-154    
1 67530U 26013J   26195.53252353 -.00000076  00000+0  10412-3 0  9998
2 67530  50.0055 257.2245 0001246 217.0082 143.0704 13.29332179 23686
HULIANWANG DIGUI-155    
1 68129U 26047A   26195.59441330 -.00000102  00000+0  46795-4 0  9995
2 68129  50.0047 318.0875 0000901 198.6891 161.3948 13.29333840 16711
