{"fetched_at":"2026-07-15T06:36:07.156Z","source":"https://celestrak.org/NORAD/elements/gp.php?NAME=HULIANWANG&FORMAT=JSON","constellation":"guowang","records":[{"OBJECT_NAME":"HULIANWANG DIGUI-140","OBJECT_ID":"2026-007D","EPOCH":"2026-07-14T18:31:23.423232","CLASSIFICATION_TYPE":"U","MEAN_MOTION":13.2932602,"ECCENTRICITY":0.00008796,"INCLINATION":50.007,"RA_OF_ASC_NODE":347.1067,"ARG_OF_PERICENTER":117.1949,"MEAN_ANOMALY":242.9013,"EPHEMERIS_TYPE":0,"NORAD_CAT_ID":67438,"ELEMENT_SET_NO":999,"REV_AT_EPOCH":2445,"BSTAR":0.00002170555,"MEAN_MOTION_DOT":-0.00000114,"MEAN_MOTION_DDOT":0},{"OBJECT_NAME":"HULIANWANG DIGUI-141","OBJECT_ID":"2026-007E","EPOCH":"2026-07-14T15:54:58.211136","CLASSIFICATION_TYPE":"U","MEAN_MOTION":13.29326789,"ECCENTRICITY":0.00008746,"INCLINATION":50.0066,"RA_OF_ASC_NODE":347.1924,"ARG_OF_PERICENTER":114.9557,"MEAN_ANOMALY":245.1407,"EPHEMERIS_TYPE":0,"NORAD_CAT_ID":67439,"ELEMENT_SET_NO":999,"REV_AT_EPOCH":2444,"BSTAR":0.000015416614,"MEAN_MOTION_DOT":-0.00000117,"MEAN_MOTION_DDOT":0},{"OBJECT_NAME":"HULIANWANG DIGUI-142","OBJECT_ID":"2026-007F","EPOCH":"2026-07-14T21:07:45.603552","CLASSIFICATION_TYPE":"U","MEAN_MOTION":13.29326609,"ECCENTRICITY":0.00008884,"INCLINATION":50.0138,"RA_OF_ASC_NODE":346.4551,"ARG_OF_PERICENTER":113.8211,"MEAN_ANOMALY":246.2755,"EPHEMERIS_TYPE":0,"NORAD_CAT_ID":67440,"ELEMENT_SET_NO":999,"REV_AT_EPOCH":2447,"BSTAR":0.000032797083,"MEAN_MOTION_DOT":-0.00000109,"MEAN_MOTION_DDOT":0},{"OBJECT_NAME":"HULIANWANG DIGUI-143","OBJECT_ID":"2026-007G","EPOCH":"2026-07-14T19:07:32.121984","CLASSIFICATION_TYPE":"U","MEAN_MOTION":13.2932498,"ECCENTRICITY":0.00007372,"INCLINATION":50.0122,"RA_OF_ASC_NODE":346.6531,"ARG_OF_PERICENTER":115.6363,"MEAN_ANOMALY":244.4586,"EPHEMERIS_TYPE":0,"NORAD_CAT_ID":67441,"ELEMENT_SET_NO":999,"REV_AT_EPOCH":2446,"BSTAR":0.000034315994,"MEAN_MOTION_DOT":-0.00000108,"MEAN_MOTION_DDOT":0},{"OBJECT_NAME":"HULIANWANG DIGUI-144","OBJECT_ID":"2026-007H","EPOCH":"2026-07-14T18:55:14.274624","CLASSIFICATION_TYPE":"U","MEAN_MOTION":13.29329183,"ECCENTRICITY":0.00008906,"INCLINATION":50.0107,"RA_OF_ASC_NODE":346.5933,"ARG_OF_PERICENTER":122.0674,"MEAN_ANOMALY":238.0285,"EPHEMERIS_TYPE":0,"NORAD_CAT_ID":67442,"ELEMENT_SET_NO":999,"REV_AT_EPOCH":2446,"BSTAR":0.000019103073,"MEAN_MOTION_DOT":-0.00000115,"MEAN_MOTION_DDOT":0},{"OBJECT_NAME":"HULIANWANG DIGUI-145","OBJECT_ID":"2026-007J","EPOCH":"2026-07-14T18:43:28.737408","CLASSIFICATION_TYPE":"U","MEAN_MOTION":13.29325812,"ECCENTRICITY":0.00008421,"INCLINATION":50.0112,"RA_OF_ASC_NODE":346.5564,"ARG_OF_PERICENTER":114.5857,"MEAN_ANOMALY":245.5104,"EPHEMERIS_TYPE":0,"NORAD_CAT_ID":67443,"ELEMENT_SET_NO":999,"REV_AT_EPOCH":2446,"BSTAR":0.000045983388,"MEAN_MOTION_DOT":-0.00000103,"MEAN_MOTION_DDOT":0},{"OBJECT_NAME":"HULIANWANG DIGUI-146","OBJECT_ID":"2026-013A","EPOCH":"2026-07-14T12:34:57.410112","CLASSIFICATION_TYPE":"U","MEAN_MOTION":13.29325132,"ECCENTRICITY":0.0001338,"INCLINATION":50.007,"RA_OF_ASC_NODE":257.862,"ARG_OF_PERICENTER":215.6472,"MEAN_ANOMALY":144.4311,"EPHEMERIS_TYPE":0,"NORAD_CAT_ID":67522,"ELEMENT_SET_NO":999,"REV_AT_EPOCH":2368,"BSTAR":0.00011385,"MEAN_MOTION_DOT":-7.1e-7,"MEAN_MOTION_DDOT":0},{"OBJECT_NAME":"HULIANWANG DIGUI-147","OBJECT_ID":"2026-013B","EPOCH":"2026-07-14T12:22:43.526784","CLASSIFICATION_TYPE":"U","MEAN_MOTION":13.2932868,"ECCENTRICITY":0.00012463,"INCLINATION":50.0043,"RA_OF_ASC_NODE":257.7706,"ARG_OF_PERICENTER":215.7587,"MEAN_ANOMALY":144.3202,"EPHEMERIS_TYPE":0,"NORAD_CAT_ID":67523,"ELEMENT_SET_NO":999,"REV_AT_EPOCH":2368,"BSTAR":0.000083688109,"MEAN_MOTION_DOT":-8.5e-7,"MEAN_MOTION_DDOT":0},{"OBJECT_NAME":"HULIANWANG DIGUI-148","OBJECT_ID":"2026-013C","EPOCH":"2026-07-14T10:22:23.518560","CLASSIFICATION_TYPE":"U","MEAN_MOTION":13.29326627,"ECCENTRICITY":0.00012971,"INCLINATION":50.0083,"RA_OF_ASC_NODE":258.059,"ARG_OF_PERICENTER":214.9596,"MEAN_ANOMALY":145.1191,"EPHEMERIS_TYPE":0,"NORAD_CAT_ID":67524,"ELEMENT_SET_NO":999,"REV_AT_EPOCH":2367,"BSTAR":0.000082854234,"MEAN_MOTION_DOT":-8.6e-7,"MEAN_MOTION_DDOT":0},{"OBJECT_NAME":"HULIANWANG DIGUI-149","OBJECT_ID":"2026-013D","EPOCH":"2026-07-14T10:10:34.228128","CLASSIFICATION_TYPE":"U","MEAN_MOTION":13.29331483,"ECCENTRICITY":0.00014957,"INCLINATION":50.0076,"RA_OF_ASC_NODE":258.0078,"ARG_OF_PERICENTER":217.0803,"MEAN_ANOMALY":142.9966,"EPHEMERIS_TYPE":0,"NORAD_CAT_ID":67525,"ELEMENT_SET_NO":999,"REV_AT_EPOCH":2367,"BSTAR":0.000087859154,"MEAN_MOTION_DOT":-8.3e-7,"MEAN_MOTION_DDOT":0},{"OBJECT_NAME":"HULIANWANG DIGUI-150","OBJECT_ID":"2026-013E","EPOCH":"2026-07-14T13:23:03.145920","CLASSIFICATION_TYPE":"U","MEAN_MOTION":13.29325771,"ECCENTRICITY":0.0001298,"INCLINATION":50.0039,"RA_OF_ASC_NODE":257.3236,"ARG_OF_PERICENTER":216.682,"MEAN_ANOMALY":143.3963,"EPHEMERIS_TYPE":0,"NORAD_CAT_ID":67526,"ELEMENT_SET_NO":999,"REV_AT_EPOCH":2371,"BSTAR":0.00015126,"MEAN_MOTION_DOT":-5.4e-7,"MEAN_MOTION_DDOT":0},{"OBJECT_NAME":"HULIANWANG DIGUI-151","OBJECT_ID":"2026-013F","EPOCH":"2026-07-14T13:35:02.190912","CLASSIFICATION_TYPE":"U","MEAN_MOTION":13.29327953,"ECCENTRICITY":0.00012875,"INCLINATION":50.0087,"RA_OF_ASC_NODE":257.4328,"ARG_OF_PERICENTER":215.1066,"MEAN_ANOMALY":144.9722,"EPHEMERIS_TYPE":0,"NORAD_CAT_ID":67527,"ELEMENT_SET_NO":999,"REV_AT_EPOCH":2369,"BSTAR":0.00017709322,"MEAN_MOTION_DOT":-4.2e-7,"MEAN_MOTION_DDOT":0},{"OBJECT_NAME":"HULIANWANG DIGUI-152","OBJECT_ID":"2026-013G","EPOCH":"2026-07-14T13:10:54.444864","CLASSIFICATION_TYPE":"U","MEAN_MOTION":13.29332419,"ECCENTRICITY":0.0001275,"INCLINATION":50.003,"RA_OF_ASC_NODE":257.2698,"ARG_OF_PERICENTER":218.3991,"MEAN_ANOMALY":141.679,"EPHEMERIS_TYPE":0,"NORAD_CAT_ID":67528,"ELEMENT_SET_NO":999,"REV_AT_EPOCH":2369,"BSTAR":0.00010452,"MEAN_MOTION_DOT":-7.6e-7,"MEAN_MOTION_DDOT":0},{"OBJECT_NAME":"HULIANWANG DIGUI-153","OBJECT_ID":"2026-013H","EPOCH":"2026-07-14T12:59:00.130272","CLASSIFICATION_TYPE":"U","MEAN_MOTION":13.29323702,"ECCENTRICITY":0.0001249,"INCLINATION":50.003,"RA_OF_ASC_NODE":257.2295,"ARG_OF_PERICENTER":219.1895,"MEAN_ANOMALY":140.8886,"EPHEMERIS_TYPE":0,"NORAD_CAT_ID":67529,"ELEMENT_SET_NO":999,"REV_AT_EPOCH":2368,"BSTAR":0.000088889,"MEAN_MOTION_DOT":-8.3e-7,"MEAN_MOTION_DDOT":0},{"OBJECT_NAME":"HULIANWANG DIGUI-154","OBJECT_ID":"2026-013J","EPOCH":"2026-07-14T12:46:50.032992","CLASSIFICATION_TYPE":"U","MEAN_MOTION":13.29332179,"ECCENTRICITY":0.0001246,"INCLINATION":50.0055,"RA_OF_ASC_NODE":257.2245,"ARG_OF_PERICENTER":217.0082,"MEAN_ANOMALY":143.0704,"EPHEMERIS_TYPE":0,"NORAD_CAT_ID":67530,"ELEMENT_SET_NO":999,"REV_AT_EPOCH":2368,"BSTAR":0.00010412,"MEAN_MOTION_DOT":-7.6e-7,"MEAN_MOTION_DDOT":0},{"OBJECT_NAME":"HULIANWANG DIGUI-155","OBJECT_ID":"2026-047A","EPOCH":"2026-07-14T14:15:57.309120","CLASSIFICATION_TYPE":"U","MEAN_MOTION":13.2933384,"ECCENTRICITY":0.0000901,"INCLINATION":50.0047,"RA_OF_ASC_NODE":318.0875,"ARG_OF_PERICENTER":198.6891,"MEAN_ANOMALY":161.3948,"EPHEMERIS_TYPE":0,"NORAD_CAT_ID":68129,"ELEMENT_SET_NO":999,"REV_AT_EPOCH":1671,"BSTAR":0.000046795,"MEAN_MOTION_DOT":-0.00000102,"MEAN_MOTION_DDOT":0}]}
